OBJECT_NAME,OBJECT_ID,EPOCH,MEAN_MOTION,ECCENTRICITY,INCLINATION,RA_OF_ASC_NODE,ARG_OF_PERICENTER,MEAN_ANOMALY,EPHEMERIS_TYPE,CLASSIFICATION_TYPE,NORAD_CAT_ID,ELEMENT_SET_NO,REV_AT_EPOCH,BSTAR,MEAN_MOTION_DOT,MEAN_MOTION_DDOT
BEIDOU-2 IGSO-5 (C10),2011-073A,2026-07-02T17:30:18.330912,1.00270596,.01145273,47.6496,271.3544,222.0502,141.5350,0,U,37948,999,5329,0,-.128E-5,0
LUCH 5A (SDCM/PRN 140),2011-074B,2026-07-08T21:19:58.565856,1.00272581,.00025808,8.8057,73.4886,55.9319,284.3687,0,U,37951,999,5326,0,-.43E-6,0
BEIDOU-2 G5 (C05),2012-008A,2026-07-09T03:39:56.384352,1.00269062,.0007367,3.6249,69.5622,272.3929,58.8359,0,U,38091,999,5258,0,.68E-6,0
BEIDOU-2 M3 (C11),2012-018A,2026-07-08T16:00:30.239424,1.86230123,.00206827,55.7381,304.1519,272.7938,86.9867,0,U,38250,999,9634,0,-.68E-6,0
BEIDOU-2 M4 (C12),2012-018B,2026-07-05T21:56:58.538688,1.86229838,.00118237,55.6406,303.4567,273.7127,86.1743,0,U,38251,999,9629,0,-.61E-6,0
SES-5 (EGNOS/PRN 136),2012-036A,2026-07-09T07:03:38.780640,1.00268991,.00019859,0.0448,320.7099,147.8262,289.5875,0,U,38652,999,4467,0,.47E-6,0
BEIDOU-2 M6 (C14),2012-050B,2026-07-08T07:24:57.268224,1.86230889,.00131005,56.5624,62.1961,0.6971,359.3663,0,U,38775,999,9370,0,-.46E-6,0
GSAT-10 (GAGAN/PRN 128),2012-051B,2026-07-08T14:05:37.162752,1.00268990,.00077538,0.0370,245.6491,209.8848,125.3828,0,U,38779,999,5031,0,-.149E-5,0
GPS BIIF-3  (PRN 24),2012-053A,2026-07-09T06:04:28.498368,2.00567798,.01816175,53.5889,142.6954,66.1165,295.7493,0,U,38833,999,9988,0,.48E-6,0
GSAT0103 (GALILEO-FM3),2012-055A,2026-07-05T01:45:34.213824,1.70473389,.0004125,55.8163,101.0549,308.6335,51.3483,0,U,38857,999,8531,0,.1E-7,0
BEIDOU-2 G6 (C02),2012-059A,2026-07-08T22:06:07.388640,1.00268620,.00089268,4.4729,73.2936,330.1279,298.9370,0,U,38953,999,5012,0,-.164E-5,0
LUCH 5B (SDCM/PRN 125),2012-061A,2026-07-09T00:54:36.441792,1.00271488,.00036343,10.5276,49.6603,142.1553,92.5720,0,U,38977,999,4982,0,-.132E-5,0
COSMOS 2485 (747),2013-019A,2026-07-08T23:09:53.273952,2.13103389,.00228484,65.4313,72.8739,231.8552,127.9986,0,U,39155,999,10274,0,-.24E-6,0
GPS BIIF-4  (PRN 27),2013-023A,2026-07-08T14:55:47.790624,2.00563336,.01413844,54.4874,268.0998,51.1026,310.2123,0,U,39166,999,9631,0,-.5E-7,0
IRNSS-1A,2013-034A,2026-07-07T17:25:54.891264,1.00281056,.00175755,35.7641,63.5758,183.3679,355.4225,0,U,39199,999,4757,0,.61E-6,0
GPS BIIF-5  (PRN 30),2014-008A,2026-07-09T02:56:22.498368,2.00561151,.00841812,53.6572,148.4252,231.5244,127.6963,0,U,39533,999,9012,0,.61E-6,0
ASTRA 5B (EGNOS/PRN 123),2014-011B,2026-07-09T06:55:38.598816,1.00271384,.00018301,0.0646,311.6431,162.4981,300.4906,0,U,39617,999,4488,0,.151E-5,0
COSMOS 2492 (754),2014-012A,2026-07-07T23:39:10.931616,2.13103463,.00103042,65.2846,313.2297,319.9334,40.0016,0,U,39620,999,9568,0,-.51E-6,0
IRNSS-1B,2014-017A,2026-07-07T17:25:47.402976,1.00273395,.00229449,28.8900,240.0484,195.8882,166.2518,0,U,39635,999,4500,0,.141E-5,0
LUCH 5V (SDCM/PRN 141),2014-023A,2026-07-08T20:27:21.636000,1.00267122,.0002698,5.1830,69.5287,69.4492,189.3250,0,U,39727,999,4457,0,-.257E-5,0
GPS BIIF-6  (PRN 06),2014-026A,2026-07-08T09:37:42.948192,2.00559384,.0038114,56.4870,330.6921,325.9785,33.7812,0,U,39741,999,8896,0,-.72E-6,0
COSMOS 2500 (755),2014-032A,2026-07-07T05:11:48.297408,2.13106140,.00079705,65.2207,313.0011,188.6383,171.3606,0,U,40001,999,9388,0,-.48E-6,0
GPS BIIF-7  (PRN 09),2014-045A,2026-07-08T23:47:49.478496,2.00559814,.00341629,55.3668,87.5962,118.3268,242.0523,0,U,40105,999,8651,0,-.32E-6,0
GSAT0201 (GALILEO 5),2014-050A,2026-07-05T04:52:57.756000,1.85520009,.1677026,48.8557,272.6971,180.0981,179.9258,0,U,40128,999,7865,0,-.32E-6,0
GSAT0202 (GALILEO 6),2014-050B,2026-07-07T01:49:14.945952,1.85520527,.1678641,48.8704,271.7059,180.8920,178.8253,0,U,40129,999,8085,0,-.3E-6,0
IRNSS-1C,2014-061A,2026-07-09T07:12:15.406848,1.00273284,.00221392,6.5725,88.5105,4.7824,25.0275,0,U,40269,999,4291,0,-.154E-5,0
GPS BIIF-8  (PRN 03),2014-068A,2026-07-08T20:37:58.928448,2.00577411,.00674461,57.0024,30.1204,71.3730,289.4121,0,U,40294,999,8564,0,-.5E-6,0
COSMOS 2501 (702K),2014-075A,2026-07-08T21:16:42.742848,2.13101408,.00226582,63.6180,189.6208,212.5878,147.3015,0,U,40315,999,9031,0,.125E-5,0
GPS BIIF-9  (PRN 26),2015-013A,2026-07-09T00:01:36.963264,2.00550039,.01101364,53.1666,203.2753,40.3247,320.5339,0,U,40534,999,8226,0,.113E-5,0
GSAT0203 (GALILEO 7),2015-017A,2026-07-08T07:54:54.200736,1.70476104,.00024273,56.7796,341.0202,260.3680,99.6048,0,U,40544,999,6956,0,-.74E-6,0
GSAT0204 (GALILEO 8),2015-017B,2026-07-07T09:53:57.571296,1.70475727,.00025512,56.7861,341.0638,235.3414,124.6352,0,U,40545,999,3258,0,-.72E-6,0
